[{"OBJECT_NAME":"STARLINK-36617","OBJECT_ID":"2026-020T","EPOCH":"2026-03-09T22:00:01.999584","MEAN_MOTION":15.57952197,"ECCENTRICITY":0.00017004,"INCLINATION":42.9998,"RA_OF_ASC_NODE":140.4898,"ARG_OF_PERICENTER":280.4794,"MEAN_ANOMALY":139.9373,"EPHEMERIS_TYPE":0,"CLASSIFICATION_TYPE":"U","NORAD_CAT_ID":67634,"ELEMENT_SET_NO":999,"REV_AT_EPOCH":593,"BSTAR":-0.028244508,"MEAN_MOTION_DOT":-0.01915394,"MEAN_MOTION_DDOT":0},{"OBJECT_NAME":"CSSWE","OBJECT_ID":"2012-048D","EPOCH":"2026-03-09T08:13:05.901888","MEAN_MOTION":15.39093253,"ECCENTRICITY":0.00676686,"INCLINATION":64.6623,"RA_OF_ASC_NODE":70.3925,"ARG_OF_PERICENTER":202.9126,"MEAN_ANOMALY":156.8988,"EPHEMERIS_TYPE":0,"CLASSIFICATION_TYPE":"U","NORAD_CAT_ID":38761,"ELEMENT_SET_NO":999,"REV_AT_EPOCH":10100,"BSTAR":0.00070329542,"MEAN_MOTION_DOT":0.0002953,"MEAN_MOTION_DDOT":0}]
